0 SL-14 R/B
1 21656U 91056B   13283.32370189 -.00000344  00000-0 -92627-3 0   141
2 21656 082.5582 172.4784 0013141 197.7397 300.7154 13.17031571 65110
0 SL-14 R/B
1 21656U 91056B   13285.81643833  .00000308  00000-0  76873-3 0   150
2 21656 082.5578 170.7181 0013287 191.5554 239.5271 13.17024933 65444
0 SL-14 R/B
1 21656U 91056B   13288.18054765  .00000410  00000-0  10342-2 0   166
2 21656 082.5572 169.0486 0013411 185.5882 288.5242 13.17025247 65758
0 SL-14 R/B
1 21656U 91056B   13290.31242185 -.00000137  00000-0 -38914-3 0   174
2 21656 082.5567 167.5431 0013530 180.3514 316.2529 13.17031194 66039
0 SL-14 R/B
1 21656U 91056B   13292.80132514 -.00000393  00000-0 -10542-2 0   185
2 21656 082.5564 165.7852 0013662 174.2742 236.7588 13.17032487 66367
0 SL-14 R/B
1 21656U 91056B   13295.24951750  .00000190  00000-0  46248-3 0   194
2 21656 082.5563 164.0560 0013766 168.3084 324.2705 13.17026314 66683
